{"type": "FeatureCollection", "features": [{"type": "Feature", "properties": {"norad_id": 28890, "name": "BEIJING 1", "group": "dmc", "lat": -73.57406808513636, "lon": 158.06561815866874, "alt_km": 700.7568817708116, "timestamp": "2025-12-26T23:26:41.819874+00:00", "meta": {"OBJECT_NAME": "BEIJING 1", "OBJECT_ID": "2005-043A", "EPOCH": "2025-12-26T18:52:06.207744", "MEAN_MOTION": 14.63379105, "ECCENTRICITY": 0.0015876, "INCLINATION": 98.2664, "RA_OF_ASC_NODE": 128.3273, "ARG_OF_PERICENTER": 100.0288, "MEAN_ANOMALY": 260.2706, "EPHEMERIS_TYPE": 0, "CLASSIFICATION_TYPE": "U", "NORAD_CAT_ID": 28890, "ELEMENT_SET_NO": 999, "REV_AT_EPOCH": 7543, "BSTAR": 0.00010965, "MEAN_MOTION_DOT": 5.19e-06, "MEAN_MOTION_DDOT": 0}, "tle": {"line1": "1 28890U 05043A   25360.78618296  .00000519  00000+0  10965-3 0  9990", "line2": "2 28890  98.2664 128.3273 0015876 100.0288 260.2706 14.63379105 75437"}}, "geometry": {"type": "Point", "coordinates": [158.06561815866874, -73.57406808513636]}}, {"type": "Feature", "properties": {"norad_id": 33320, "name": "HUANJING 1A (HJ-1A)", "group": "dmc", "lat": -74.60325991069296, "lon": 139.444448527766, "alt_km": 626.3096990734366, "timestamp": "2025-12-26T23:26:41.819910+00:00", "meta": {"OBJECT_NAME": "HUANJING 1A (HJ-1A)", "OBJECT_ID": "2008-041A", "EPOCH": "2025-12-26T17:26:02.395968", "MEAN_MOTION": 14.83437692, "ECCENTRICITY": 0.0019018, "INCLINATION": 97.6554, "RA_OF_ASC_NODE": 348.4412, "ARG_OF_PERICENTER": 349.6138, "MEAN_ANOMALY": 10.4681, "EPHEMERIS_TYPE": 0, "CLASSIFICATION_TYPE": "U", "NORAD_CAT_ID": 33320, "ELEMENT_SET_NO": 999, "REV_AT_EPOCH": 93283, "BSTAR": 0.00023291, "MEAN_MOTION_DOT": 1.867e-05, "MEAN_MOTION_DDOT": 0}, "tle": {"line1": "1 33320U 08041A   25360.72641662  .00001867  00000+0  23291-3 0  9995", "line2": "2 33320  97.6554 348.4412 0019018 349.6138  10.4681 14.83437692932830"}}, "geometry": {"type": "Point", "coordinates": [139.444448527766, -74.60325991069296]}}, {"type": "Feature", "properties": {"norad_id": 33321, "name": "HUANJING 1B (HJ-1B)", "group": "dmc", "lat": 82.25018309355313, "lon": -88.22728165973136, "alt_km": 598.849258060186, "timestamp": "2025-12-26T23:26:41.819923+00:00", "meta": {"OBJECT_NAME": "HUANJING 1B (HJ-1B)", "OBJECT_ID": "2008-041B", "EPOCH": "2025-12-26T18:11:25.767168", "MEAN_MOTION": 14.82859441, "ECCENTRICITY": 0.0037654, "INCLINATION": 97.6412, "RA_OF_ASC_NODE": 352.1316, "ARG_OF_PERICENTER": 31.3457, "MEAN_ANOMALY": 328.9991, "EPHEMERIS_TYPE": 0, "CLASSIFICATION_TYPE": "U", "NORAD_CAT_ID": 33321, "ELEMENT_SET_NO": 999, "REV_AT_EPOCH": 93285, "BSTAR": 0.00020785, "MEAN_MOTION_DOT": 1.652e-05, "MEAN_MOTION_DDOT": 0}, "tle": {"line1": "1 33321U 08041B   25360.75793712  .00001652  00000+0  20785-3 0  9990", "line2": "2 33321  97.6412 352.1316 0037654  31.3457 328.9991 14.82859441932856"}}, "geometry": {"type": "Point", "coordinates": [-88.22728165973136, 82.25018309355313]}}, {"type": "Feature", "properties": {"norad_id": 33446, "name": "YAOGAN-4", "group": "dmc", "lat": -6.57612654632655, "lon": -68.14271561043843, "alt_km": 623.1037537978054, "timestamp": "2025-12-26T23:26:41.819934+00:00", "meta": {"OBJECT_NAME": "YAOGAN-4", "OBJECT_ID": "2008-061A", "EPOCH": "2025-12-26T18:36:57.310848", "MEAN_MOTION": 14.82723581, "ECCENTRICITY": 0.0012963, "INCLINATION": 97.9198, "RA_OF_ASC_NODE": 290.7385, "ARG_OF_PERICENTER": 273.4167, "MEAN_ANOMALY": 86.5564, "EPHEMERIS_TYPE": 0, "CLASSIFICATION_TYPE": "U", "NORAD_CAT_ID": 33446, "ELEMENT_SET_NO": 999, "REV_AT_EPOCH": 92011, "BSTAR": 0.00019776, "MEAN_MOTION_DOT": 1.545e-05, "MEAN_MOTION_DDOT": 0}, "tle": {"line1": "1 33446U 08061A   25360.77566332  .00001545  00000+0  19776-3 0  9997", "line2": "2 33446  97.9198 290.7385 0012963 273.4167  86.5564 14.82723581920118"}}, "geometry": {"type": "Point", "coordinates": [-68.14271561043843, -6.57612654632655]}}, {"type": "Feature", "properties": {"norad_id": 35681, "name": "DEIMOS-1", "group": "dmc", "lat": 81.64463512496471, "lon": 93.53269349674122, "alt_km": 636.3217905232532, "timestamp": "2025-12-26T23:26:41.819944+00:00", "meta": {"OBJECT_NAME": "DEIMOS-1", "OBJECT_ID": "2009-041A", "EPOCH": "2025-12-26T18:10:07.222656", "MEAN_MOTION": 14.74974663, "ECCENTRICITY": 0.0002382, "INCLINATION": 97.7159, "RA_OF_ASC_NODE": 160.7086, "ARG_OF_PERICENTER": 58.3867, "MEAN_ANOMALY": 301.7575, "EPHEMERIS_TYPE": 0, "CLASSIFICATION_TYPE": "U", "NORAD_CAT_ID": 35681, "ELEMENT_SET_NO": 999, "REV_AT_EPOCH": 88146, "BSTAR": 0.00016265, "MEAN_MOTION_DOT": 1.046e-05, "MEAN_MOTION_DDOT": 0}, "tle": {"line1": "1 35681U 09041A   25360.75702804  .00001046  00000+0  16265-3 0  9999", "line2": "2 35681  97.7159 160.7086 0002382  58.3867 301.7575 14.74974663881469"}}, "geometry": {"type": "Point", "coordinates": [93.53269349674122, 81.64463512496471]}}, {"type": "Feature", "properties": {"norad_id": 35683, "name": "UK-DMC 2", "group": "dmc", "lat": 42.902394504931486, "lon": -37.147841355248936, "alt_km": 638.7617192687485, "timestamp": "2025-12-26T23:26:41.819954+00:00", "meta": {"OBJECT_NAME": "UK-DMC 2", "OBJECT_ID": "2009-041C", "EPOCH": "2025-12-26T17:56:47.011776", "MEAN_MOTION": 14.75653372, "ECCENTRICITY": 0.0001605, "INCLINATION": 97.8573, "RA_OF_ASC_NODE": 135.2561, "ARG_OF_PERICENTER": 91.5037, "MEAN_ANOMALY": 268.6357, "EPHEMERIS_TYPE": 0, "CLASSIFICATION_TYPE": "U", "NORAD_CAT_ID": 35683, "ELEMENT_SET_NO": 999, "REV_AT_EPOCH": 88113, "BSTAR": 0.00026687, "MEAN_MOTION_DOT": 1.773e-05, "MEAN_MOTION_DDOT": 0}, "tle": {"line1": "1 35683U 09041C   25360.74776634  .00001773  00000+0  26687-3 0  9998", "line2": "2 35683  97.8573 135.2561 0001605  91.5037 268.6357 14.75653372881137"}}, "geometry": {"type": "Point", "coordinates": [-37.147841355248936, 42.902394504931486]}}, {"type": "Feature", "properties": {"norad_id": 40715, "name": "DMC3-FM1", "group": "dmc", "lat": -32.14076731916806, "lon": -127.49426184829893, "alt_km": 617.1334987158689, "timestamp": "2025-12-26T23:26:41.819964+00:00", "meta": {"OBJECT_NAME": "DMC3-FM1", "OBJECT_ID": "2015-032A", "EPOCH": "2025-12-26T18:44:27.001248", "MEAN_MOTION": 14.8546308, "ECCENTRICITY": 0.0004089, "INCLINATION": 97.6678, "RA_OF_ASC_NODE": 227.4613, "ARG_OF_PERICENTER": 261.4386, "MEAN_ANOMALY": 98.6366, "EPHEMERIS_TYPE": 0, "CLASSIFICATION_TYPE": "U", "NORAD_CAT_ID": 40715, "ELEMENT_SET_NO": 999, "REV_AT_EPOCH": 56431, "BSTAR": 0.00010015, "MEAN_MOTION_DOT": 8.12e-06, "MEAN_MOTION_DDOT": 0}, "tle": {"line1": "1 40715U 15032A   25360.78086807  .00000812  00000+0  10015-3 0  9998", "line2": "2 40715  97.6678 227.4613 0004089 261.4386  98.6366 14.85463080564314"}}, "geometry": {"type": "Point", "coordinates": [-127.49426184829893, -32.14076731916806]}}, {"type": "Feature", "properties": {"norad_id": 40716, "name": "DMC3-FM2", "group": "dmc", "lat": -27.27022681818972, "lon": 45.119034582020724, "alt_km": 616.374932023612, "timestamp": "2025-12-26T23:26:41.819974+00:00", "meta": {"OBJECT_NAME": "DMC3-FM2", "OBJECT_ID": "2015-032B", "EPOCH": "2025-12-26T19:16:49.028736", "MEAN_MOTION": 14.85468018, "ECCENTRICITY": 0.0004524, "INCLINATION": 97.6736, "RA_OF_ASC_NODE": 228.9371, "ARG_OF_PERICENTER": 268.7873, "MEAN_ANOMALY": 91.2824, "EPHEMERIS_TYPE": 0, "CLASSIFICATION_TYPE": "U", "NORAD_CAT_ID": 40716, "ELEMENT_SET_NO": 999, "REV_AT_EPOCH": 56431, "BSTAR": 0.00018321, "MEAN_MOTION_DOT": 1.529e-05, "MEAN_MOTION_DDOT": 0}, "tle": {"line1": "1 40716U 15032B   25360.80334524  .00001529  00000+0  18321-3 0  9998", "line2": "2 40716  97.6736 228.9371 0004524 268.7873  91.2824 14.85468018564316"}}, "geometry": {"type": "Point", "coordinates": [45.119034582020724, -27.27022681818972]}}, {"type": "Feature", "properties": {"norad_id": 40717, "name": "DMC3-FM3", "group": "dmc", "lat": 82.21869894225632, "lon": 131.63695386194883, "alt_km": 607.396644192926, "timestamp": "2025-12-26T23:26:41.819983+00:00", "meta": {"OBJECT_NAME": "DMC3-FM3", "OBJECT_ID": "2015-032C", "EPOCH": "2025-12-26T18:11:08.249568", "MEAN_MOTION": 14.85451787, "ECCENTRICITY": 0.0003856, "INCLINATION": 97.6792, "RA_OF_ASC_NODE": 230.5354, "ARG_OF_PERICENTER": 270.1925, "MEAN_ANOMALY": 89.8848, "EPHEMERIS_TYPE": 0, "CLASSIFICATION_TYPE": "U", "NORAD_CAT_ID": 40717, "ELEMENT_SET_NO": 999, "REV_AT_EPOCH": 56431, "BSTAR": 0.00010791, "MEAN_MOTION_DOT": 8.79e-06, "MEAN_MOTION_DDOT": 0}, "tle": {"line1": "1 40717U 15032C   25360.75773437  .00000879  00000+0  10791-3 0  9993", "line2": "2 40717  97.6792 230.5354 0003856 270.1925  89.8848 14.85451787564315"}}, "geometry": {"type": "Point", "coordinates": [131.63695386194883, 82.21869894225632]}}]}